{
    "links": {
        "self": "http://www.neowsapp.com/rest/v1/neo/54076018?api_key=iIulBulltgU6a56xZRHN4H3l9WmuAYTsLGpBGhQ2"
    },
    "id": "54076018",
    "neo_reference_id": "54076018",
    "name": "(2020 UJ4)",
    "designation": "2020 UJ4",
    "nasa_jpl_url": "http://ssd.jpl.nasa.gov/sbdb.cgi?sstr=54076018",
    "absolute_magnitude_h": 26.821,
    "estimated_diameter": {
        "kilometers": {
            "estimated_diameter_min": 0.0114909246,
            "estimated_diameter_max": 0.0256944886
        },
        "meters": {
            "estimated_diameter_min": 11.4909246439,
            "estimated_diameter_max": 25.6944886281
        },
        "miles": {
            "estimated_diameter_min": 0.0071401273,
            "estimated_diameter_max": 0.0159658101
        },
        "feet": {
            "estimated_diameter_min": 37.6998852087,
            "estimated_diameter_max": 84.2995060705
        }
    },
    "is_potentially_hazardous_asteroid": false,
    "close_approach_data": [
        {
            "close_approach_date": "2020-10-25",
            "close_approach_date_full": "2020-Oct-25 06:46",
            "epoch_date_close_approach": 1603608360000,
            "relative_velocity": {
                "kilometers_per_second": "7.8820249867",
                "kilometers_per_hour": "28375.2899521056",
                "miles_per_hour": "17631.3016927403"
            },
            "miss_distance": {
                "astronomical": "0.0167597393",
                "lunar": "6.5195385877",
                "kilometers": "2507221.301035291",
                "miles": "1557915.0749813758"
            },
            "orbiting_body": "Earth"
        }
    ],
    "orbital_data": {
        "orbit_id": "5",
        "orbit_determination_date": "2020-10-28 06:42:16",
        "first_observation_date": "2020-10-23",
        "last_observation_date": "2020-10-27",
        "data_arc_in_days": 4,
        "observations_used": 34,
        "orbit_uncertainty": "7",
        "minimum_orbit_intersection": ".0173244",
        "jupiter_tisserand_invariant": "3.805",
        "epoch_osculation": "2459000.5",
        "eccentricity": ".476047259743095",
        "semi_major_axis": "1.889497593704251",
        "inclination": "7.295283809448288",
        "ascending_node_longitude": "27.60521400757021",
        "orbital_period": "948.6760608895337",
        "perihelion_distance": ".9900074419301708",
        "perihelion_argument": "23.56076294787669",
        "aphelion_distance": "2.788987745478332",
        "perihelion_time": "2459163.672683088690",
        "mean_anomaly": "298.0798479758745",
        "mean_motion": ".3794762141066816",
        "equinox": "J2000",
        "orbit_class": {
            "orbit_class_type": "APO",
            "orbit_class_description": "Near-Earth asteroid orbits which cross the Earth’s orbit similar to that of 1862 Apollo",
            "orbit_class_range": "a (semi-major axis) > 1.0 AU; q (perihelion) < 1.017 AU"
        }
    },
    "is_sentry_object": false
}